{
  "links" : {
    "next" : "https://api.nasa.gov/neo/rest/v1/feed?start_date=2013-12-16&end_date=2013-12-16&detailed=true&api_key=t0TVs3DtDT2H8Oy2Zy8m2eVrNsAVKAexjcZXUckd",
    "prev" : "https://api.nasa.gov/neo/rest/v1/feed?start_date=2013-12-14&end_date=2013-12-14&detailed=true&api_key=t0TVs3DtDT2H8Oy2Zy8m2eVrNsAVKAexjcZXUckd",
    "self" : "https://api.nasa.gov/neo/rest/v1/feed?start_date=2013-12-15&end_date=2013-12-15&detailed=true&api_key=t0TVs3DtDT2H8Oy2Zy8m2eVrNsAVKAexjcZXUckd"
  },
  "element_count" : 6,
  "near_earth_objects" : {
    "2013-12-15" : [ {
      "links" : {
        "self" : "https://api.nasa.gov/neo/rest/v1/neo/3609163?api_key=t0TVs3DtDT2H8Oy2Zy8m2eVrNsAVKAexjcZXUckd"
      },
      "neo_reference_id" : "3609163",
      "name" : "(2012 SX49)",
      "nasa_jpl_url" : "http://ssd.jpl.nasa.gov/sbdb.cgi?sstr=3609163",
      "absolute_magnitude_h" : 26.2,
      "estimated_diameter" : {
        "kilometers" : {
          "estimated_diameter_min" : 0.0152951935,
          "estimated_diameter_max" : 0.0342010925
        },
        "meters" : {
          "estimated_diameter_min" : 15.2951935344,
          "estimated_diameter_max" : 34.201092472
        },
        "miles" : {
          "estimated_diameter_min" : 0.0095039897,
          "estimated_diameter_max" : 0.021251567
        },
        "feet" : {
          "estimated_diameter_min" : 50.1810827555,
          "estimated_diameter_max" : 112.2083122258
        }
      },
      "is_potentially_hazardous_asteroid" : false,
      "close_approach_data" : [ {
        "close_approach_date" : "2013-12-15",
        "epoch_date_close_approach" : 1387094400000,
        "relative_velocity" : {
          "kilometers_per_second" : "11.7688579831",
          "kilometers_per_hour" : "42367.8887390502",
          "miles_per_hour" : "26325.7584223282"
        },
        "miss_distance" : {
          "astronomical" : "0.2814096542",
          "lunar" : "109.4683532715",
          "kilometers" : "42098284",
          "miles" : "26158662"
        },
        "orbiting_body" : "Earth"
      } ],
      "orbital_data" : {
        "orbit_id" : "4",
        "orbit_determination_date" : "2017-04-06 08:48:52",
        "orbit_uncertainty" : "7",
        "minimum_orbit_intersection" : ".0204851",
        "jupiter_tisserand_invariant" : "6.332",
        "epoch_osculation" : "2458000.5",
        "eccentricity" : ".1171010481716168",
        "semi_major_axis" : ".9484959890121808",
        "inclination" : "3.90550538059634",
        "ascending_node_longitude" : "353.554033334358",
        "orbital_period" : "337.4051249258065",
        "perihelion_distance" : ".8374261145122801",
        "perihelion_argument" : "210.4467403602372",
        "aphelion_distance" : "1.059565863512081",
        "perihelion_time" : "2458076.905074287267",
        "mean_anomaly" : "278.4783374305167",
        "mean_motion" : "1.066966603068528",
        "equinox" : "J2000"
      }
    }, {
      "links" : {
        "self" : "https://api.nasa.gov/neo/rest/v1/neo/3740806?api_key=t0TVs3DtDT2H8Oy2Zy8m2eVrNsAVKAexjcZXUckd"
      },
      "neo_reference_id" : "3740806",
      "name" : "(2016 BD1)",
      "nasa_jpl_url" : "http://ssd.jpl.nasa.gov/sbdb.cgi?sstr=3740806",
      "absolute_magnitude_h" : 21.2,
      "estimated_diameter" : {
        "kilometers" : {
          "estimated_diameter_min" : 0.1529519353,
          "estimated_diameter_max" : 0.3420109247
        },
        "meters" : {
          "estimated_diameter_min" : 152.9519353442,
          "estimated_diameter_max" : 342.0109247198
        },
        "miles" : {
          "estimated_diameter_min" : 0.095039897,
          "estimated_diameter_max" : 0.2125156703
        },
        "feet" : {
          "estimated_diameter_min" : 501.8108275547,
          "estimated_diameter_max" : 1122.0831222578
        }
      },
      "is_potentially_hazardous_asteroid" : false,
      "close_approach_data" : [ {
        "close_approach_date" : "2013-12-15",
        "epoch_date_close_approach" : 1387094400000,
        "relative_velocity" : {
          "kilometers_per_second" : "3.9765808645",
          "kilometers_per_hour" : "14315.6911120808",
          "miles_per_hour" : "8895.213735726"
        },
        "miss_distance" : {
          "astronomical" : "0.2268301948",
          "lunar" : "88.236946106",
          "kilometers" : "33933316",
          "miles" : "21085184"
        },
        "orbiting_body" : "Earth"
      } ],
      "orbital_data" : {
        "orbit_id" : "19",
        "orbit_determination_date" : "2017-04-06 08:28:58",
        "orbit_uncertainty" : "5",
        "minimum_orbit_intersection" : ".225613",
        "jupiter_tisserand_invariant" : "4.368",
        "epoch_osculation" : "2458000.5",
        "eccentricity" : ".2878601334266362",
        "semi_major_axis" : "1.559032150489884",
        "inclination" : "10.59557591077443",
        "ascending_node_longitude" : "150.5418606866891",
        "orbital_period" : "711.0187178857718",
        "perihelion_distance" : "1.110248947633451",
        "perihelion_argument" : "275.6834183177785",
        "aphelion_distance" : "2.007815353346318",
        "perihelion_time" : "2458047.660359371184",
        "mean_anomaly" : "336.1219656437319",
        "mean_motion" : ".5063157845836563",
        "equinox" : "J2000"
      }
    }, {
      "links" : {
        "self" : "https://api.nasa.gov/neo/rest/v1/neo/3764806?api_key=t0TVs3DtDT2H8Oy2Zy8m2eVrNsAVKAexjcZXUckd"
      },
      "neo_reference_id" : "3764806",
      "name" : "(2016 WU7)",
      "nasa_jpl_url" : "http://ssd.jpl.nasa.gov/sbdb.cgi?sstr=3764806",
      "absolute_magnitude_h" : 25.2,
      "estimated_diameter" : {
        "kilometers" : {
          "estimated_diameter_min" : 0.0242412481,
          "estimated_diameter_max" : 0.0542050786
        },
        "meters" : {
          "estimated_diameter_min" : 24.2412481101,
          "estimated_diameter_max" : 54.2050786336
        },
        "miles" : {
          "estimated_diameter_min" : 0.0150628086,
          "estimated_diameter_max" : 0.0336814639
        },
        "feet" : {
          "estimated_diameter_min" : 79.5316564495,
          "estimated_diameter_max" : 177.8381901842
        }
      },
      "is_potentially_hazardous_asteroid" : false,
      "close_approach_data" : [ {
        "close_approach_date" : "2013-12-15",
        "epoch_date_close_approach" : 1387094400000,
        "relative_velocity" : {
          "kilometers_per_second" : "12.3743318671",
          "kilometers_per_hour" : "44547.594721488",
          "miles_per_hour" : "27680.1429534713"
        },
        "miss_distance" : {
          "astronomical" : "0.2867274467",
          "lunar" : "111.5369796753",
          "kilometers" : "42893816",
          "miles" : "26652982"
        },
        "orbiting_body" : "Earth"
      } ],
      "orbital_data" : {
        "orbit_id" : "4",
        "orbit_determination_date" : "2017-04-06 08:21:56",
        "orbit_uncertainty" : "6",
        "minimum_orbit_intersection" : ".0119773",
        "jupiter_tisserand_invariant" : "6.890",
        "epoch_osculation" : "2458000.5",
        "eccentricity" : ".4416943551013883",
        "semi_major_axis" : ".8375570081279065",
        "inclination" : "19.76759210755226",
        "ascending_node_longitude" : "243.614950945384",
        "orbital_period" : "279.9754763169043",
        "perihelion_distance" : ".4676128055622026",
        "perihelion_argument" : "41.6483224835708",
        "aphelion_distance" : "1.20750121069361",
        "perihelion_time" : "2457925.367527342473",
        "mean_anomaly" : "96.60735473164922",
        "mean_motion" : "1.285826904326849",
        "equinox" : "J2000"
      }
    } ]
  }
}